{"type": "FeatureCollection", "features": [{"type": "Feature", "properties": {"norad_id": 28890, "name": "BEIJING 1", "group": "dmc", "lat": -56.53251731577035, "lon": 140.40360332834925, "alt_km": 699.7974379885518, "timestamp": "2025-12-26T03:50:11.754355+00:00", "meta": {"OBJECT_NAME": "BEIJING 1", "OBJECT_ID": "2005-043A", "EPOCH": "2025-12-25T21:32:06.650016", "MEAN_MOTION": 14.63378632, "ECCENTRICITY": 0.0015836, "INCLINATION": 98.2664, "RA_OF_ASC_NODE": 127.4362, "ARG_OF_PERICENTER": 102.5862, "MEAN_ANOMALY": 257.7112, "EPHEMERIS_TYPE": 0, "CLASSIFICATION_TYPE": "U", "NORAD_CAT_ID": 28890, "ELEMENT_SET_NO": 999, "REV_AT_EPOCH": 7530, "BSTAR": 0.0001324, "MEAN_MOTION_DOT": 6.37e-06, "MEAN_MOTION_DDOT": 0}, "tle": {"line1": "1 28890U 05043A   25359.89729919  .00000637  00000+0  13240-3 0  9995", "line2": "2 28890  98.2664 127.4362 0015836 102.5862 257.7112 14.63378632 75309"}}, "geometry": {"type": "Point", "coordinates": [140.40360332834925, -56.53251731577035]}}, {"type": "Feature", "properties": {"norad_id": 33320, "name": "HUANJING 1A (HJ-1A)", "group": "dmc", "lat": -35.87976431271402, "lon": 162.31505621119283, "alt_km": 634.3397563920817, "timestamp": "2025-12-26T03:50:11.754385+00:00", "meta": {"OBJECT_NAME": "HUANJING 1A (HJ-1A)", "OBJECT_ID": "2008-041A", "EPOCH": "2025-12-25T22:00:27.835776", "MEAN_MOTION": 14.83433246, "ECCENTRICITY": 0.0019133, "INCLINATION": 97.6551, "RA_OF_ASC_NODE": 347.6653, "ARG_OF_PERICENTER": 352.1825, "MEAN_ANOMALY": 7.9088, "EPHEMERIS_TYPE": 0, "CLASSIFICATION_TYPE": "U", "NORAD_CAT_ID": 33320, "ELEMENT_SET_NO": 999, "REV_AT_EPOCH": 93271, "BSTAR": 0.00018043, "MEAN_MOTION_DOT": 1.435e-05, "MEAN_MOTION_DDOT": 0}, "tle": {"line1": "1 33320U 08041A   25359.91698884  .00001435  00000+0  18043-3 0  9992", "line2": "2 33320  97.6551 347.6653 0019133 352.1825   7.9088 14.83433246932715"}}, "geometry": {"type": "Point", "coordinates": [162.31505621119283, -35.87976431271402]}}, {"type": "Feature", "properties": {"norad_id": 33321, "name": "HUANJING 1B (HJ-1B)", "group": "dmc", "lat": 49.042027369922806, "lon": -17.337312934949292, "alt_km": 590.6237981530376, "timestamp": "2025-12-26T03:50:11.754400+00:00", "meta": {"OBJECT_NAME": "HUANJING 1B (HJ-1B)", "OBJECT_ID": "2008-041B", "EPOCH": "2025-12-25T21:08:13.858080", "MEAN_MOTION": 14.82856603, "ECCENTRICITY": 0.0037663, "INCLINATION": 97.6409, "RA_OF_ASC_NODE": 351.293, "ARG_OF_PERICENTER": 34.1292, "MEAN_ANOMALY": 326.2333, "EPHEMERIS_TYPE": 0, "CLASSIFICATION_TYPE": "U", "NORAD_CAT_ID": 33321, "ELEMENT_SET_NO": 999, "REV_AT_EPOCH": 93272, "BSTAR": 0.0002244, "MEAN_MOTION_DOT": 1.788e-05, "MEAN_MOTION_DDOT": 0}, "tle": {"line1": "1 33321U 08041B   25359.88071595  .00001788  00000+0  22440-3 0  9990", "line2": "2 33321  97.6409 351.2930 0037663  34.1292 326.2333 14.82856603932726"}}, "geometry": {"type": "Point", "coordinates": [-17.337312934949292, 49.042027369922806]}}, {"type": "Feature", "properties": {"norad_id": 33446, "name": "YAOGAN-4", "group": "dmc", "lat": -44.521077487618804, "lon": -62.00300459071471, "alt_km": 620.4425042014664, "timestamp": "2025-12-26T03:50:11.754412+00:00", "meta": {"OBJECT_NAME": "YAOGAN-4", "OBJECT_ID": "2008-061A", "EPOCH": "2025-12-25T18:19:17.173344", "MEAN_MOTION": 14.8271976, "ECCENTRICITY": 0.0012966, "INCLINATION": 97.9198, "RA_OF_ASC_NODE": 289.7359, "ARG_OF_PERICENTER": 277.0684, "MEAN_ANOMALY": 82.9055, "EPHEMERIS_TYPE": 0, "CLASSIFICATION_TYPE": "U", "NORAD_CAT_ID": 33446, "ELEMENT_SET_NO": 999, "REV_AT_EPOCH": 91996, "BSTAR": 0.00018511, "MEAN_MOTION_DOT": 1.442e-05, "MEAN_MOTION_DDOT": 0}, "tle": {"line1": "1 33446U 08061A   25359.76339321  .00001442  00000+0  18511-3 0  9992", "line2": "2 33446  97.9198 289.7359 0012966 277.0684  82.9055 14.82719760919964"}}, "geometry": {"type": "Point", "coordinates": [-62.00300459071471, -44.521077487618804]}}, {"type": "Feature", "properties": {"norad_id": 35681, "name": "DEIMOS-1", "group": "dmc", "lat": 69.6602968236339, "lon": 138.6863199852174, "alt_km": 636.8155855849764, "timestamp": "2025-12-26T03:50:11.754423+00:00", "meta": {"OBJECT_NAME": "DEIMOS-1", "OBJECT_ID": "2009-041A", "EPOCH": "2025-12-25T21:00:10.381824", "MEAN_MOTION": 14.74971139, "ECCENTRICITY": 0.0002449, "INCLINATION": 97.7158, "RA_OF_ASC_NODE": 159.8676, "ARG_OF_PERICENTER": 59.4812, "MEAN_ANOMALY": 300.6639, "EPHEMERIS_TYPE": 0, "CLASSIFICATION_TYPE": "U", "NORAD_CAT_ID": 35681, "ELEMENT_SET_NO": 999, "REV_AT_EPOCH": 88133, "BSTAR": 9.1256e-05, "MEAN_MOTION_DOT": 5.66e-06, "MEAN_MOTION_DDOT": 0}, "tle": {"line1": "1 35681U 09041A   25359.87512016  .00000566  00000+0  91256-4 0  9994", "line2": "2 35681  97.7158 159.8676 0002449  59.4812 300.6639 14.74971139881338"}}, "geometry": {"type": "Point", "coordinates": [138.6863199852174, 69.6602968236339]}}, {"type": "Feature", "properties": {"norad_id": 35683, "name": "UK-DMC 2", "group": "dmc", "lat": 60.11766372649281, "lon": -31.40950765972782, "alt_km": 636.2845771911898, "timestamp": "2025-12-26T03:50:11.754434+00:00", "meta": {"OBJECT_NAME": "UK-DMC 2", "OBJECT_ID": "2009-041C", "EPOCH": "2025-12-25T20:47:25.264032", "MEAN_MOTION": 14.75648794, "ECCENTRICITY": 0.0001586, "INCLINATION": 97.8573, "RA_OF_ASC_NODE": 134.3995, "ARG_OF_PERICENTER": 91.6419, "MEAN_ANOMALY": 268.4972, "EPHEMERIS_TYPE": 0, "CLASSIFICATION_TYPE": "U", "NORAD_CAT_ID": 35683, "ELEMENT_SET_NO": 999, "REV_AT_EPOCH": 88100, "BSTAR": 0.00016697, "MEAN_MOTION_DOT": 1.091e-05, "MEAN_MOTION_DDOT": 0}, "tle": {"line1": "1 35683U 09041C   25359.86626463  .00001091  00000+0  16697-3 0  9996", "line2": "2 35683  97.8573 134.3995 0001586  91.6419 268.4972 14.75648794881000"}}, "geometry": {"type": "Point", "coordinates": [-31.40950765972782, 60.11766372649281]}}, {"type": "Feature", "properties": {"norad_id": 40715, "name": "DMC3-FM1", "group": "dmc", "lat": -76.49082721149762, "lon": -99.02736870172996, "alt_km": 616.7312162913277, "timestamp": "2025-12-26T03:50:11.754446+00:00", "meta": {"OBJECT_NAME": "DMC3-FM1", "OBJECT_ID": "2015-032A", "EPOCH": "2025-12-25T21:43:27.622848", "MEAN_MOTION": 14.85461304, "ECCENTRICITY": 0.0004083, "INCLINATION": 97.6679, "RA_OF_ASC_NODE": 226.6177, "ARG_OF_PERICENTER": 266.1388, "MEAN_ANOMALY": 93.9361, "EPHEMERIS_TYPE": 0, "CLASSIFICATION_TYPE": "U", "NORAD_CAT_ID": 40715, "ELEMENT_SET_NO": 999, "REV_AT_EPOCH": 56418, "BSTAR": 8.6785e-05, "MEAN_MOTION_DOT": 6.97e-06, "MEAN_MOTION_DDOT": 0}, "tle": {"line1": "1 40715U 15032A   25359.90518082  .00000697  00000+0  86785-4 0  9994", "line2": "2 40715  97.6679 226.6177 0004083 266.1388  93.9361 14.85461304564184"}}, "geometry": {"type": "Point", "coordinates": [-99.02736870172996, -76.49082721149762]}}, {"type": "Feature", "properties": {"norad_id": 40716, "name": "DMC3-FM2", "group": "dmc", "lat": 18.739369409481434, "lon": 50.93793546696774, "alt_km": 613.5713937948613, "timestamp": "2025-12-26T03:50:11.754456+00:00", "meta": {"OBJECT_NAME": "DMC3-FM2", "OBJECT_ID": "2015-032B", "EPOCH": "2025-12-25T20:38:49.924320", "MEAN_MOTION": 14.85464523, "ECCENTRICITY": 0.000458, "INCLINATION": 97.6736, "RA_OF_ASC_NODE": 228.0276, "ARG_OF_PERICENTER": 272.8014, "MEAN_ANOMALY": 87.2677, "EPHEMERIS_TYPE": 0, "CLASSIFICATION_TYPE": "U", "NORAD_CAT_ID": 40716, "ELEMENT_SET_NO": 999, "REV_AT_EPOCH": 56417, "BSTAR": 0.00015505, "MEAN_MOTION_DOT": 1.286e-05, "MEAN_MOTION_DDOT": 0}, "tle": {"line1": "1 40716U 15032B   25359.86030005  .00001286  00000+0  15505-3 0  9990", "line2": "2 40716  97.6736 228.0276 0004580 272.8014  87.2677 14.85464523564178"}}, "geometry": {"type": "Point", "coordinates": [50.93793546696774, 18.739369409481434]}}, {"type": "Feature", "properties": {"norad_id": 40717, "name": "DMC3-FM3", "group": "dmc", "lat": 44.27701120973041, "lon": -137.60154750533047, "alt_km": 610.2359332311016, "timestamp": "2025-12-26T03:50:11.754466+00:00", "meta": {"OBJECT_NAME": "DMC3-FM3", "OBJECT_ID": "2015-032C", "EPOCH": "2025-12-25T19:33:08.254368", "MEAN_MOTION": 14.85451614, "ECCENTRICITY": 0.0003858, "INCLINATION": 97.6792, "RA_OF_ASC_NODE": 229.6255, "ARG_OF_PERICENTER": 274.3923, "MEAN_ANOMALY": 85.6851, "EPHEMERIS_TYPE": 0, "CLASSIFICATION_TYPE": "U", "NORAD_CAT_ID": 40717, "ELEMENT_SET_NO": 999, "REV_AT_EPOCH": 56417, "BSTAR": 0.00017738, "MEAN_MOTION_DOT": 1.478e-05, "MEAN_MOTION_DDOT": 0}, "tle": {"line1": "1 40717U 15032C   25359.81467887  .00001478  00000+0  17738-3 0  9991", "line2": "2 40717  97.6792 229.6255 0003858 274.3923  85.6851 14.85451614564171"}}, "geometry": {"type": "Point", "coordinates": [-137.60154750533047, 44.27701120973041]}}]}